{
  "type": "FeatureCollection",
  "features": [
    {
      "type": "Feature",
      "properties": {
        "norad_id": 29816,
        "name": "FENGYUN 1C DEB",
        "group": "fengyun-1c-debris",
        "lat": -79.65352776705643,
        "lon": -77.84124593713223,
        "alt_km": 881.3344858474402,
        "timestamp": "2025-12-27T03:58:44.423625+00:00",
        "meta_object_name": "FENGYUN 1C DEB",
        "meta_object_id": "1999-025DJ",
        "meta_epoch": "2025-12-26T13:43:24.485088",
        "meta_mean_motion": 14.44412226,
        "meta_eccentricity": 0.0238004,
        "meta_inclination": 98.9924,
        "meta_ra_of_asc_node": 221.3777,
        "meta_arg_of_pericenter": 135.9324,
        "meta_mean_anomaly": 290.5973,
        "meta_ephemeris_type": 0,
        "meta_classification_type": "U",
        "meta_norad_cat_id": 29816,
        "meta_element_set_no": 999,
        "meta_rev_at_epoch": 98387,
        "meta_bstar": 0.00078524,
        "meta_mean_motion_dot": 3.774e-05,
        "meta_mean_motion_ddot": 0,
        "tle_line1": "1 29816U 99025DJ  25360.57181117  .00003774  00000+0  78524-3 0  9997",
        "tle_line2": "2 29816  98.9924 221.3777 0238004 135.9324 290.5973 14.44412226983872"
      },
      "geometry": {
        "type": "Point",
        "coordinates": [
          -77.84124593713223,
          -79.65352776705643
        ]
      }
    },
    {
      "type": "Feature",
      "properties": {
        "norad_id": 29817,
        "name": "FENGYUN 1C DEB",
        "group": "fengyun-1c-debris",
        "lat": 81.29098705753266,
        "lon": -110.79255040462573,
        "alt_km": 841.1382642238395,
        "timestamp": "2025-12-27T03:58:44.423635+00:00",
        "meta_object_name": "FENGYUN 1C DEB",
        "meta_object_id": "1999-025DK",
        "meta_epoch": "2025-12-26T21:04:22.452960",
        "meta_mean_motion": 14.14270433,
        "meta_eccentricity": 0.0011535,
        "meta_inclination": 98.5586,
        "meta_ra_of_asc_node": 349.4836,
        "meta_arg_of_pericenter": 335.2033,
        "meta_mean_anomaly": 92.025,
        "meta_ephemeris_type": 0,
        "meta_classification_type": "U",
        "meta_norad_cat_id": 29817,
        "meta_element_set_no": 999,
        "meta_rev_at_epoch": 97595,
        "meta_bstar": 0.00035923,
        "meta_mean_motion_dot": 6.44e-06,
        "meta_mean_motion_ddot": 0,
        "tle_line1": "1 29817U 99025DK  25360.87803765  .00000644  00000+0  35923-3 0  9990",
        "tle_line2": "2 29817  98.5586 349.4836 0011535 335.2033  92.0250 14.14270433975953"
      },
      "geometry": {
        "type": "Point",
        "coordinates": [
          -110.79255040462573,
          81.29098705753266
        ]
      }
    },
    {
      "type": "Feature",
      "properties": {
        "norad_id": 29818,
        "name": "FENGYUN 1C DEB",
        "group": "fengyun-1c-debris",
        "lat": 41.18700531797306,
        "lon": -129.800873493944,
        "alt_km": 828.2462419575331,
        "timestamp": "2025-12-27T03:58:44.423644+00:00",
        "meta_object_name": "FENGYUN 1C DEB",
        "meta_object_id": "1999-025DL",
        "meta_epoch": "2025-12-26T06:05:37.717728",
        "meta_mean_motion": 14.04512714,
        "meta_eccentricity": 0.011456,
        "meta_inclination": 98.7205,
        "meta_ra_of_asc_node": 237.0415,
        "meta_arg_of_pericenter": 347.9713,
        "meta_mean_anomaly": 124.6512,
        "meta_ephemeris_type": 0,
        "meta_classification_type": "U",
        "meta_norad_cat_id": 29818,
        "meta_element_set_no": 999,
        "meta_rev_at_epoch": 96999,
        "meta_bstar": 0.00035731,
        "meta_mean_motion_dot": 5.62e-06,
        "meta_mean_motion_ddot": 0,
        "tle_line1": "1 29818U 99025DL  25360.25390877  .00000562  00000+0  35731-3 0  9994",
        "tle_line2": "2 29818  98.7205 237.0415 0114560 347.9713 124.6512 14.04512714969996"
      },
      "geometry": {
        "type": "Point",
        "coordinates": [
          -129.800873493944,
          41.18700531797306
        ]
      }
    },
    {
      "type": "Feature",
      "properties": {
        "norad_id": 29819,
        "name": "FENGYUN 1C DEB",
        "group": "fengyun-1c-debris",
        "lat": 33.54166359714494,
        "lon": -21.536156894387503,
        "alt_km": 745.8664230977238,
        "timestamp": "2025-12-27T03:58:44.423653+00:00",
        "meta_object_name": "FENGYUN 1C DEB",
        "meta_object_id": "1999-025DM",
        "meta_epoch": "2025-12-26T12:56:47.920992",
        "meta_mean_motion": 14.02216993,
        "meta_eccentricity": 0.0191514,
        "meta_inclination": 98.7347,
        "meta_ra_of_asc_node": 343.7128,
        "meta_arg_of_pericenter": 28.631,
        "meta_mean_anomaly": 85.1352,
        "meta_ephemeris_type": 0,
        "meta_classification_type": "U",
        "meta_norad_cat_id": 29819,
        "meta_element_set_no": 999,
        "meta_rev_at_epoch": 96813,
        "meta_bstar": 0.00036977,
        "meta_mean_motion_dot": 6.23e-06,
        "meta_mean_motion_ddot": 0,
        "tle_line1": "1 29819U 99025DM  25360.53944353  .00000623  00000+0  36977-3 0  9991",
        "tle_line2": "2 29819  98.7347 343.7128 0191514  28.6310  85.1352 14.02216993968136"
      },
      "geometry": {
        "type": "Point",
        "coordinates": [
          -21.536156894387503,
          33.54166359714494
        ]
      }
    },
    {
      "type": "Feature",
      "properties": {
        "norad_id": 29820,
        "name": "FENGYUN 1C DEB",
        "group": "fengyun-1c-debris",
        "lat": 33.393272095267584,
        "lon": 1.8971112552615712,
        "alt_km": 932.9246310050194,
        "timestamp": "2025-12-27T03:58:44.423662+00:00",
        "meta_object_name": "FENGYUN 1C DEB",
        "meta_object_id": "1999-025DN",
        "meta_epoch": "2025-12-26T14:43:28.229952",
        "meta_mean_motion": 14.02634189,
        "meta_eccentricity": 0.0072455,
        "meta_inclination": 98.8331,
        "meta_ra_of_asc_node": 7.245,
        "meta_arg_of_pericenter": 198.8071,
        "meta_mean_anomaly": 288.229,
        "meta_ephemeris_type": 0,
        "meta_classification_type": "U",
        "meta_norad_cat_id": 29820,
        "meta_element_set_no": 999,
        "meta_rev_at_epoch": 96754,
        "meta_bstar": 0.00066421,
        "meta_mean_motion_dot": 1.006e-05,
        "meta_mean_motion_ddot": 0,
        "tle_line1": "1 29820U 99025DN  25360.61352118  .00001006  00000+0  66421-3 0  9997",
        "tle_line2": "2 29820  98.8331   7.2450 0072455 198.8071 288.2290 14.02634189967540"
      },
      "geometry": {
        "type": "Point",
        "coordinates": [
          1.8971112552615712,
          33.393272095267584
        ]
      }
    },
    {
      "type": "Feature",
      "properties": {
        "norad_id": 29821,
        "name": "FENGYUN 1C DEB",
        "group": "fengyun-1c-debris",
        "lat": 12.294939308508349,
        "lon": -122.02680467724194,
        "alt_km": 834.7011327521623,
        "timestamp": "2025-12-27T03:58:44.423672+00:00",
        "meta_object_name": "FENGYUN 1C DEB",
        "meta_object_id": "1999-025DP",
        "meta_epoch": "2025-12-26T17:35:08.945088",
        "meta_mean_motion": 14.11124854,
        "meta_eccentricity": 0.0376127,
        "meta_inclination": 98.8715,
        "meta_ra_of_asc_node": 55.5936,
        "meta_arg_of_pericenter": 81.1507,
        "meta_mean_anomaly": 43.3036,
        "meta_ephemeris_type": 0,
        "meta_classification_type": "U",
        "meta_norad_cat_id": 29821,
        "meta_element_set_no": 999,
        "meta_rev_at_epoch": 96708,
        "meta_bstar": 0.00052205,
        "meta_mean_motion_dot": 1.784e-05,
        "meta_mean_motion_ddot": 0,
        "tle_line1": "1 29821U 99025DP  25360.73274242  .00001784  00000+0  52205-3 0  9990",
        "tle_line2": "2 29821  98.8715  55.5936 0376127  81.1507  43.3036 14.11124854967083"
      },
      "geometry": {
        "type": "Point",
        "coordinates": [
          -122.02680467724194,
          12.294939308508349
        ]
      }
    },
    {
      "type": "Feature",
      "properties": {
        "norad_id": 29827,
        "name": "FENGYUN 1C DEB",
        "group": "fengyun-1c-debris",
        "lat": -23.920716526141742,
        "lon": -4.148348042584807,
        "alt_km": 815.1802717513729,
        "timestamp": "2025-12-27T03:58:44.423681+00:00",
        "meta_object_name": "FENGYUN 1C DEB",
        "meta_object_id": "1999-025DV",
        "meta_epoch": "2025-12-24T22:22:20.292384",
        "meta_mean_motion": 14.21704833,
        "meta_eccentricity": 0.0024566,
        "meta_inclination": 98.6034,
        "meta_ra_of_asc_node": 349.8237,
        "meta_arg_of_pericenter": 286.1154,
        "meta_mean_anomaly": 144.0752,
        "meta_ephemeris_type": 0,
        "meta_classification_type": "U",
        "meta_norad_cat_id": 29827,
        "meta_element_set_no": 999,
        "meta_rev_at_epoch": 98036,
        "meta_bstar": 0.00031686,
        "meta_mean_motion_dot": 6.55e-06,
        "meta_mean_motion_ddot": 0,
        "tle_line1": "1 29827U 99025DV  25358.93217931  .00000655  00000+0  31686-3 0  9993",
        "tle_line2": "2 29827  98.6034 349.8237 0024566 286.1154 144.0752 14.21704833980368"
      },
      "geometry": {
        "type": "Point",
        "coordinates": [
          -4.148348042584807,
          -23.920716526141742
        ]
      }
    }
  ]
}